start=new Date('2021-09-11T00:00:00.000Z').valueOf();
sats=[{"SEMIMAJOR_AXIS":"6817.823","SITE":"AFETR","PERIOD":"93.375","FILE":"3112758","MEAN_MOTION":"15.42176706","OBJECT_TYPE":"PAYLOAD","EPHEMERIS_TYPE":"0","OBJECT_NAME":"STARLINK-1064","COUNTRY_CODE":"US","ELEMENT_SET_NO":"999","GP_ID":"184471668","CLASSIFICATION_TYPE":"U","RA_OF_ASC_NODE":"27.4617","DECAY_DATE":null,"MEAN_MOTION_DOT":"0.00007024","MEAN_MOTION_DDOT":"0.0000000000000","ARG_OF_PERICENTER":"57.0037","INCLINATION":"53.0556","ECCENTRICITY":"0.00012370","BSTAR":"0.00017061000000","RCS_SIZE":"LARGE","OBJECT_ID":"2019-074BJ","LAUNCH_DATE":"2019-11-11","TLE_LINE1":"1 44769U 19074BJ  21253.60582296  .00007024  00000-0  17061-3 0  9993","MEAN_ANOMALY":"303.1086","NORAD_CAT_ID":"44769","TLE_LINE2":"2 44769  53.0556  27.4617 0001237  57.0037 303.1086 15.42176706101000","PERIAPSIS":"438.845","CENTER_NAME":"EARTH","EPOCH":"2021-09-10T14:32:23.103744","REF_FRAME":"TEME","TIME_SYSTEM":"UTC","REV_AT_EPOCH":"10100","APOAPSIS":"440.532","MEAN_ELEMENT_THEORY":"SGP4"},{"GP_ID":"184471918","CLASSIFICATION_TYPE":"U","ELEMENT_SET_NO":"999","COUNTRY_CODE":"US","OBJECT_NAME":"STARLINK-1065","EPHEMERIS_TYPE":"0","OBJECT_TYPE":"PAYLOAD","MEAN_MOTION_DDOT":"0.0000000000000","MEAN_MOTION_DOT":"0.00002820","DECAY_DATE":null,"RA_OF_ASC_NODE":"27.8235","SEMIMAJOR_AXIS":"6918.996","MEAN_MOTION":"15.08475194","FILE":"3112758","PERIOD":"95.461","SITE":"AFETR","TIME_SYSTEM":"UTC","REF_FRAME":"TEME","EPOCH":"2021-09-10T20:56:20.397984","CENTER_NAME":"EARTH","PERIAPSIS":"540.260","TLE_LINE2":"2 44770  53.0043  27.8235 0000868  93.8669 266.2420 15.08475194100938","NORAD_CAT_ID":"44770","MEAN_ANOMALY":"266.2420","APOAPSIS":"541.461","MEAN_ELEMENT_THEORY":"SGP4","REV_AT_EPOCH":"10093","RCS_SIZE":"LARGE","BSTAR":"0.00019709000000","ECCENTRICITY":"0.00008680","INCLINATION":"53.0043","ARG_OF_PERICENTER":"93.8669","TLE_LINE1":"1 44770U 19074BK  21253.87245831  .00002820  00000-0  19709-3 0  9995","OBJECT_ID":"2019-074BK","LAUNCH_DATE":"2019-11-11"},{"DECAY_DATE":null,"RA_OF_ASC_NODE":"32.9184","MEAN_MOTION_DDOT":"0.0000000000000","MEAN_MOTION_DOT":"-0.00000415","OBJECT_TYPE":"PAYLOAD","EPHEMERIS_TYPE":"0","GP_ID":"184472670","CLASSIFICATION_TYPE":"U","ELEMENT_SET_NO":"999","COUNTRY_CODE":"US","OBJECT_NAME":"STARLINK-1067","MEAN_MOTION":"15.06399158","FILE":"3112758","PERIOD":"95.592","SITE":"AFETR","SEMIMAJOR_AXIS":"6925.351","REV_AT_EPOCH":"10087","MEAN_ELEMENT_THEORY":"SGP4","APOAPSIS":"548.266","CENTER_NAME":"EARTH","NORAD_CAT_ID":"44771","TLE_LINE2":"2 44771  53.0572  32.9184 0001516 105.4018 254.7138 15.06399158100879","PERIAPSIS":"546.166","MEAN_ANOMALY":"254.7138","TIME_SYSTEM":"UTC","REF_FRAME":"TEME","EPOCH":"2021-09-10T18:53:54.304512","LAUNCH_DATE":"2019-11-11","OBJECT_ID":"2019-074BL","TLE_LINE1":"1 44771U 19074BL  21253.78743408 -.00000415  00000-0 -89607-5 0  9995","BSTAR":"-0.00000896070000","ECCENTRICITY":"0.00015160","ARG_OF_PERICENTER":"105.4018","INCLINATION":"53.0572","RCS_SIZE":"LARGE"},{"MEAN_MOTION":"15.06394392","FILE":"3112758","SITE":"AFETR","PERIOD":"95.592","SEMIMAJOR_AXIS":"6925.366","DECAY_DATE":null,"RA_OF_ASC_NODE":"13.5563","MEAN_MOTION_DDOT":"0.0000000000000","MEAN_MOTION_DOT":"-0.00000316","OBJECT_TYPE":"PAYLOAD","EPHEMERIS_TYPE":"0","ELEMENT_SET_NO":"999","GP_ID":"184473420","CLASSIFICATION_TYPE":"U","OBJECT_NAME":"STARLINK-1068","COUNTRY_CODE":"US","OBJECT_ID":"2019-074BM","LAUNCH_DATE":"2019-11-11","TLE_LINE1":"1 44772U 19074BM  21253.64552955 -.00000316  00000-0 -23098-5 0  9998","BSTAR":"-0.00000230980000","INCLINATION":"53.0561","ARG_OF_PERICENTER":"113.9312","ECCENTRICITY":"0.00011910","RCS_SIZE":"LARGE","REV_AT_EPOCH":"10112","MEAN_ELEMENT_THEORY":"SGP4","APOAPSIS":"548.056","TLE_LINE2":"2 44772  53.0561  13.5563 0001191 113.9312 246.1802 15.06394392101121","PERIAPSIS":"546.406","NORAD_CAT_ID":"44772","CENTER_NAME":"EARTH","MEAN_ANOMALY":"246.1802","REF_FRAME":"TEME","TIME_SYSTEM":"UTC","EPOCH":"2021-09-10T15:29:33.753120"},{"BSTAR":"0.00006730600000","ECCENTRICITY":"0.00024100","ARG_OF_PERICENTER":"65.6814","INCLINATION":"53.0555","RCS_SIZE":"LARGE","LAUNCH_DATE":"2020-01-07","OBJECT_ID":"2020-001A","TLE_LINE1":"1 44914U 20001A   21253.86115636  .00000721  00000-0  67306-4 0  9990","CENTER_NAME":"EARTH","NORAD_CAT_ID":"44914","TLE_LINE2":"2 44914  53.0555 152.5939 0002410  65.6814 294.4426 15.06396886 92530","PERIAPSIS":"545.554","MEAN_ANOMALY":"294.4426","TIME_SYSTEM":"UTC","REF_FRAME":"TEME","EPOCH":"2021-09-10T20:40:03.909504","REV_AT_EPOCH":"9253","APOAPSIS":"548.892","MEAN_ELEMENT_THEORY":"SGP4","SEMIMAJOR_AXIS":"6925.358","MEAN_MOTION":"15.06396886","FILE":"3112758","PERIOD":"95.592","SITE":"AFETR","EPHEMERIS_TYPE":"0","OBJECT_TYPE":"PAYLOAD","CLASSIFICATION_TYPE":"U","GP_ID":"184472432","ELEMENT_SET_NO":"999","COUNTRY_CODE":"US","OBJECT_NAME":"STARLINK-1073","DECAY_DATE":null,"RA_OF_ASC_NODE":"152.5939","MEAN_MOTION_DDOT":"0.0000000000000","MEAN_MOTION_DOT":"0.00000721"},{"TLE_LINE1":"1 44915U 20001B   21253.89064999 -.00000968  00000-0 -46109-4 0  9992","LAUNCH_DATE":"2020-01-07","OBJECT_ID":"2020-001B","RCS_SIZE":"LARGE","ECCENTRICITY":"0.00021090","INCLINATION":"53.0552","ARG_OF_PERICENTER":"64.1592","BSTAR":"-0.00004610900000","APOAPSIS":"548.708","MEAN_ELEMENT_THEORY":"SGP4","REV_AT_EPOCH":"9254","EPOCH":"2021-09-10T21:22:32.159136","TIME_SYSTEM":"UTC","REF_FRAME":"TEME","MEAN_ANOMALY":"295.9614","CENTER_NAME":"EARTH","NORAD_CAT_ID":"44915","TLE_LINE2":"2 44915  53.0552 152.4643 0002109  64.1592 295.9614 15.06388874 92545","PERIAPSIS":"545.787","PERIOD":"95.593","SITE":"AFETR","MEAN_MOTION":"15.06388874","FILE":"3112758","SEMIMAJOR_AXIS":"6925.383","MEAN_MOTION_DOT":"-0.00000968","MEAN_MOTION_DDOT":"0.0000000000000","RA_OF_ASC_NODE":"152.4643","DECAY_DATE":null,"COUNTRY_CODE":"US","OBJECT_NAME":"STARLINK-1084","CLASSIFICATION_TYPE":"U","GP_ID":"184473184","ELEMENT_SET_NO":"999","OBJECT_TYPE":"PAYLOAD","EPHEMERIS_TYPE":"0"},{"OBJECT_TYPE":"PAYLOAD","EPHEMERIS_TYPE":"0","OBJECT_NAME":"STARLINK-1097","COUNTRY_CODE":"US","ELEMENT_SET_NO":"999","GP_ID":"184472935","CLASSIFICATION_TYPE":"U","RA_OF_ASC_NODE":"134.6817","DECAY_DATE":null,"MEAN_MOTION_DOT":"0.00020990","MEAN_MOTION_DDOT":"0.0000000000000","SEMIMAJOR_AXIS":"6732.784","SITE":"AFETR","PERIOD":"91.633","FILE":"3112758","MEAN_MOTION":"15.71486880","MEAN_ANOMALY":"307.8104","PERIAPSIS":"353.940","TLE_LINE2":"2 44916  53.0531 134.6817 0001053  52.3009 307.8104 15.71486880 92799","NORAD_CAT_ID":"44916","CENTER_NAME":"EARTH","EPOCH":"2021-09-10T21:48:53.364672","REF_FRAME":"TEME","TIME_SYSTEM":"UTC","REV_AT_EPOCH":"9279","APOAPSIS":"355.358","MEAN_ELEMENT_THEORY":"SGP4","INCLINATION":"53.0531","ARG_OF_PERICENTER":"52.3009","ECCENTRICITY":"0.00010530","BSTAR":"0.00016505000000","RCS_SIZE":"LARGE","LAUNCH_DATE":"2020-01-07","OBJECT_ID":"2020-001C","TLE_LINE1":"1 44916U 20001C   21253.90895098  .00020990  00000-0  16505-3 0  9998"},{"APOAPSIS":"548.633","MEAN_ELEMENT_THEORY":"SGP4","REV_AT_EPOCH":"9254","EPOCH":"2021-09-10T21:27:49.958208","REF_FRAME":"TEME","TIME_SYSTEM":"UTC","MEAN_ANOMALY":"286.1281","TLE_LINE2":"2 44917  53.0554 152.4471 0002036  73.9932 286.1281 15.06396772 92541","PERIAPSIS":"545.813","NORAD_CAT_ID":"44917","CENTER_NAME":"EARTH","TLE_LINE1":"1 44917U 20001D   21253.89432822 -.00000957  00000-0 -45354-4 0  9997","OBJECT_ID":"2020-001D","LAUNCH_DATE":"2020-01-07","RCS_SIZE":"LARGE","ARG_OF_PERICENTER":"73.9932","INCLINATION":"53.0554","ECCENTRICITY":"0.00020360","BSTAR":"-0.00004535400000","MEAN_MOTION_DOT":"-0.00000957","MEAN_MOTION_DDOT":"0.0000000000000","RA_OF_ASC_NODE":"152.4471","DECAY_DATE":null,"OBJECT_NAME":"STARLINK-1098","COUNTRY_CODE":"US","ELEMENT_SET_NO":"999","GP_ID":"184471683","CLASSIFICATION_TYPE":"U","OBJECT_TYPE":"PAYLOAD","EPHEMERIS_TYPE":"0","SITE":"AFETR","PERIOD":"95.592","FILE":"3112758","MEAN_MOTION":"15.06396772","SEMIMAJOR_AXIS":"6925.358"},{"SEMIMAJOR_AXIS":"6925.367","MEAN_MOTION":"15.06393836","FILE":"3112758","SITE":"AFETR","PERIOD":"95.593","ELEMENT_SET_NO":"999","CLASSIFICATION_TYPE":"U","GP_ID":"184471933","OBJECT_NAME":"STARLINK-1099","COUNTRY_CODE":"US","OBJECT_TYPE":"PAYLOAD","EPHEMERIS_TYPE":"0","MEAN_MOTION_DDOT":"0.0000000000000","MEAN_MOTION_DOT":"0.00001455","DECAY_DATE":null,"RA_OF_ASC_NODE":"152.3967","RCS_SIZE":"LARGE","BSTAR":"0.00011662000000","ARG_OF_PERICENTER":"72.4251","INCLINATION":"53.0550","ECCENTRICITY":"0.00020000","TLE_LINE1":"1 44918U 20001E   21253.90538890  .00001455  00000-0  11662-3 0  9998","LAUNCH_DATE":"2020-01-07","OBJECT_ID":"2020-001E","REF_FRAME":"TEME","TIME_SYSTEM":"UTC","EPOCH":"2021-09-10T21:43:45.600960","TLE_LINE2":"2 44918  53.0550 152.3967 0002000  72.4251 287.6956 15.06393836 93281","PERIAPSIS":"545.847","NORAD_CAT_ID":"44918","CENTER_NAME":"EARTH","MEAN_ANOMALY":"287.6956","MEAN_ELEMENT_THEORY":"SGP4","APOAPSIS":"548.618","REV_AT_EPOCH":"9328"},{"RCS_SIZE":"LARGE","BSTAR":"0.00011882000000","ARG_OF_PERICENTER":"27.4714","INCLINATION":"53.0521","ECCENTRICITY":"0.00009980","TLE_LINE1":"1 44919U 20001F   21253.89239175  .00014935  00000-0  11882-3 0  9992","LAUNCH_DATE":"2020-01-07","OBJECT_ID":"2020-001F","REF_FRAME":"TEME","TIME_SYSTEM":"UTC","EPOCH":"2021-09-10T21:25:02.647200","TLE_LINE2":"2 44919  53.0521 138.0347 0000998  27.4714 332.6356 15.71494220 92747","PERIAPSIS":"353.956","NORAD_CAT_ID":"44919","CENTER_NAME":"EARTH","MEAN_ANOMALY":"332.6356","APOAPSIS":"355.300","MEAN_ELEMENT_THEORY":"SGP4","REV_AT_EPOCH":"9274","SEMIMAJOR_AXIS":"6732.763","FILE":"3112758","MEAN_MOTION":"15.71494220","SITE":"AFETR","PERIOD":"91.633","ELEMENT_SET_NO":"999","CLASSIFICATION_TYPE":"U","GP_ID":"184472685","OBJECT_NAME":"STARLINK-1101","COUNTRY_CODE":"US","EPHEMERIS_TYPE":"0","OBJECT_TYPE":"PAYLOAD","MEAN_MOTION_DDOT":"0.0000000000000","MEAN_MOTION_DOT":"0.00014935","DECAY_DATE":null,"RA_OF_ASC_NODE":"138.0347"}];
